CCSDS_OMM_VERS = 2.0
CREATION_DATE  = 
ORIGINATOR     = 

OBJECT_NAME    = H-2A R/B
OBJECT_ID      = 2006-002B
CENTER_NAME    = EARTH
REF_FRAME      = TEME
TIME_SYSTEM    = UTC
MEAN_ELEMENT_THEORY = SGP/SGP4

EPOCH          = 2026-03-10T09:37:26.965920
MEAN_MOTION    = 15.16440954
ECCENTRICITY   = .005187
INCLINATION    = 98.2415
RA_OF_ASC_NODE = 216.4856
ARG_OF_PERICENTER = 238.5346
MEAN_ANOMALY   = 121.0809

EPHEMERIS_TYPE = 0
CLASSIFICATION_TYPE = U
NORAD_CAT_ID   = 28932
ELEMENT_SET_NO = 999
REV_AT_EPOCH   = 9454
BSTAR          = .65433E-3
MEAN_MOTION_DOT = .13102E-3
MEAN_MOTION_DDOT = 0

CCSDS_OMM_VERS = 2.0
CREATION_DATE  = 
ORIGINATOR     = 

OBJECT_NAME    = RESURS-DK 1
OBJECT_ID      = 2006-021A
CENTER_NAME    = EARTH
REF_FRAME      = TEME
TIME_SYSTEM    = UTC
MEAN_ELEMENT_THEORY = SGP/SGP4

EPOCH          = 2026-03-10T12:39:21.062304
MEAN_MOTION    = 15.12751468
ECCENTRICITY   = .0001829
INCLINATION    = 69.9317
RA_OF_ASC_NODE = 234.8558
ARG_OF_PERICENTER = 162.7089
MEAN_ANOMALY   = 197.4140

EPHEMERIS_TYPE = 0
CLASSIFICATION_TYPE = U
NORAD_CAT_ID   = 29228
ELEMENT_SET_NO = 999
REV_AT_EPOCH   = 8765
BSTAR          = .22766E-3
MEAN_MOTION_DOT = .3895E-4
MEAN_MOTION_DDOT = 0

CCSDS_OMM_VERS = 2.0
CREATION_DATE  = 
ORIGINATOR     = 

OBJECT_NAME    = CZ-4B R/B
OBJECT_ID      = 2006-046C
CENTER_NAME    = EARTH
REF_FRAME      = TEME
TIME_SYSTEM    = UTC
MEAN_ELEMENT_THEORY = SGP/SGP4

EPOCH          = 2026-03-10T03:17:11.537376
MEAN_MOTION    = 15.16910437
ECCENTRICITY   = .00316965
INCLINATION    = 97.5597
RA_OF_ASC_NODE = 114.0449
ARG_OF_PERICENTER = 265.6570
MEAN_ANOMALY   = 94.1041

EPHEMERIS_TYPE = 0
CLASSIFICATION_TYPE = U
NORAD_CAT_ID   = 29507
ELEMENT_SET_NO = 999
REV_AT_EPOCH   = 6011
BSTAR          = .30893327E-3
MEAN_MOTION_DOT = .6097E-4
MEAN_MOTION_DDOT = 0

CCSDS_OMM_VERS = 2.0
CREATION_DATE  = 
ORIGINATOR     = 

OBJECT_NAME    = CZ-2C R/B
OBJECT_ID      = 2007-010B
CENTER_NAME    = EARTH
REF_FRAME      = TEME
TIME_SYSTEM    = UTC
MEAN_ELEMENT_THEORY = SGP/SGP4

EPOCH          = 2026-03-10T06:56:52.216800
MEAN_MOTION    = 14.20246402
ECCENTRICITY   = .005794
INCLINATION    = 98.3979
RA_OF_ASC_NODE = 182.5381
ARG_OF_PERICENTER = 292.8235
MEAN_ANOMALY   = 66.6829

EPHEMERIS_TYPE = 0
CLASSIFICATION_TYPE = U
NORAD_CAT_ID   = 31114
ELEMENT_SET_NO = 999
REV_AT_EPOCH   = 97980
BSTAR          = .93211E-4
MEAN_MOTION_DOT = .161E-5
MEAN_MOTION_DDOT = 0

CCSDS_OMM_VERS = 2.0
CREATION_DATE  = 
ORIGINATOR     = 

OBJECT_NAME    = COSMO-SKYMED 1
OBJECT_ID      = 2007-023A
CENTER_NAME    = EARTH
REF_FRAME      = TEME
TIME_SYSTEM    = UTC
MEAN_ELEMENT_THEORY = SGP/SGP4

EPOCH          = 2026-03-10T12:48:30.259584
MEAN_MOTION    = 14.96543052
ECCENTRICITY   = .0001331
INCLINATION    = 97.8874
RA_OF_ASC_NODE = 260.5720
ARG_OF_PERICENTER = 99.5351
MEAN_ANOMALY   = 260.6021

EPHEMERIS_TYPE = 0
CLASSIFICATION_TYPE = U
NORAD_CAT_ID   = 31598
ELEMENT_SET_NO = 999
REV_AT_EPOCH   = 1503
BSTAR          = .39761E-3
MEAN_MOTION_DOT = .4463E-4
MEAN_MOTION_DDOT = 0

CCSDS_OMM_VERS = 2.0
CREATION_DATE  = 
ORIGINATOR     = 

OBJECT_NAME    = COSMOS 2428
OBJECT_ID      = 2007-029A
CENTER_NAME    = EARTH
REF_FRAME      = TEME
TIME_SYSTEM    = UTC
MEAN_ELEMENT_THEORY = SGP/SGP4

EPOCH          = 2026-03-10T12:37:13.596384
MEAN_MOTION    = 14.12946345
ECCENTRICITY   = .0009138
INCLINATION    = 70.9434
RA_OF_ASC_NODE = 201.5877
ARG_OF_PERICENTER = 276.1316
MEAN_ANOMALY   = 83.8764

EPHEMERIS_TYPE = 0
CLASSIFICATION_TYPE = U
NORAD_CAT_ID   = 31792
ELEMENT_SET_NO = 999
REV_AT_EPOCH   = 96421
BSTAR          = .5671E-4
MEAN_MOTION_DOT = .58E-6
MEAN_MOTION_DDOT = 0

CCSDS_OMM_VERS = 2.0
CREATION_DATE  = 
ORIGINATOR     = 

OBJECT_NAME    = SL-16 R/B
OBJECT_ID      = 2007-029B
CENTER_NAME    = EARTH
REF_FRAME      = TEME
TIME_SYSTEM    = UTC
MEAN_ELEMENT_THEORY = SGP/SGP4

EPOCH          = 2026-03-10T11:39:32.876352
MEAN_MOTION    = 14.14833530
ECCENTRICITY   = .0002312
INCLINATION    = 70.9759
RA_OF_ASC_NODE = 170.7116
ARG_OF_PERICENTER = 276.0314
MEAN_ANOMALY   = 160.3948

EPHEMERIS_TYPE = 0
CLASSIFICATION_TYPE = U
NORAD_CAT_ID   = 31793
ELEMENT_SET_NO = 999
REV_AT_EPOCH   = 96548
BSTAR          = .64928E-4
MEAN_MOTION_DOT = .77E-6
MEAN_MOTION_DDOT = 0

CCSDS_OMM_VERS = 2.0
CREATION_DATE  = 
ORIGINATOR     = 

OBJECT_NAME    = KORONAS-FOTON
OBJECT_ID      = 2009-003A
CENTER_NAME    = EARTH
REF_FRAME      = TEME
TIME_SYSTEM    = UTC
MEAN_ELEMENT_THEORY = SGP/SGP4

EPOCH          = 2026-03-10T00:34:03.219168
MEAN_MOTION    = 15.43329428
ECCENTRICITY   = .00113317
INCLINATION    = 82.4278
RA_OF_ASC_NODE = 275.5305
ARG_OF_PERICENTER = 148.5286
MEAN_ANOMALY   = 211.6641

EPHEMERIS_TYPE = 0
CLASSIFICATION_TYPE = U
NORAD_CAT_ID   = 33504
ELEMENT_SET_NO = 999
REV_AT_EPOCH   = 94579
BSTAR          = .24919035E-3
MEAN_MOTION_DOT = .11166E-3
MEAN_MOTION_DDOT = 0

CCSDS_OMM_VERS = 2.0
CREATION_DATE  = 
ORIGINATOR     = 

OBJECT_NAME    = CZ-2C R/B
OBJECT_ID      = 2011-030B
CENTER_NAME    = EARTH
REF_FRAME      = TEME
TIME_SYSTEM    = UTC
MEAN_ELEMENT_THEORY = SGP/SGP4

EPOCH          = 2026-03-10T12:00:39.113280
MEAN_MOTION    = 14.81227075
ECCENTRICITY   = .0052315
INCLINATION    = 97.8546
RA_OF_ASC_NODE = 26.7473
ARG_OF_PERICENTER = 349.4502
MEAN_ANOMALY   = 126.8060

EPHEMERIS_TYPE = 0
CLASSIFICATION_TYPE = U
NORAD_CAT_ID   = 37731
ELEMENT_SET_NO = 999
REV_AT_EPOCH   = 79021
BSTAR          = .29177E-3
MEAN_MOTION_DOT = .2271E-4
MEAN_MOTION_DDOT = 0

CCSDS_OMM_VERS = 2.0
CREATION_DATE  = 
ORIGINATOR     = 

OBJECT_NAME    = H-2A R/B
OBJECT_ID      = 2012-025E
CENTER_NAME    = EARTH
REF_FRAME      = TEME
TIME_SYSTEM    = UTC
MEAN_ELEMENT_THEORY = SGP/SGP4

EPOCH          = 2026-03-10T11:09:13.192992
MEAN_MOTION    = 14.95178903
ECCENTRICITY   = .0043295
INCLINATION    = 98.4739
RA_OF_ASC_NODE = 36.5733
ARG_OF_PERICENTER = 311.8871
MEAN_ANOMALY   = 47.8657

EPHEMERIS_TYPE = 0
CLASSIFICATION_TYPE = U
NORAD_CAT_ID   = 38341
ELEMENT_SET_NO = 999
REV_AT_EPOCH   = 74833
BSTAR          = .43651E-3
MEAN_MOTION_DOT = .4815E-4
MEAN_MOTION_DDOT = 0

CCSDS_OMM_VERS = 2.0
CREATION_DATE  = 
ORIGINATOR     = 

OBJECT_NAME    = SHIJIAN-16 (SJ-16)
OBJECT_ID      = 2013-057A
CENTER_NAME    = EARTH
REF_FRAME      = TEME
TIME_SYSTEM    = UTC
MEAN_ELEMENT_THEORY = SGP/SGP4

EPOCH          = 2026-03-10T12:00:46.967040
MEAN_MOTION    = 14.92348290
ECCENTRICITY   = .0015459
INCLINATION    = 74.9732
RA_OF_ASC_NODE = 183.5532
ARG_OF_PERICENTER = 110.3205
MEAN_ANOMALY   = 249.9646

EPHEMERIS_TYPE = 0
CLASSIFICATION_TYPE = U
NORAD_CAT_ID   = 39358
ELEMENT_SET_NO = 999
REV_AT_EPOCH   = 67162
BSTAR          = .11312E-3
MEAN_MOTION_DOT = .113E-4
MEAN_MOTION_DDOT = 0

CCSDS_OMM_VERS = 2.0
CREATION_DATE  = 
ORIGINATOR     = 

OBJECT_NAME    = SL-4 R/B
OBJECT_ID      = 2014-021B
CENTER_NAME    = EARTH
REF_FRAME      = TEME
TIME_SYSTEM    = UTC
MEAN_ELEMENT_THEORY = SGP/SGP4

EPOCH          = 2026-03-10T03:33:38.053440
MEAN_MOTION    = 15.39198695
ECCENTRICITY   = .00974529
INCLINATION    = 51.6079
RA_OF_ASC_NODE = 335.0419
ARG_OF_PERICENTER = 104.7108
MEAN_ANOMALY   = 256.4701

EPHEMERIS_TYPE = 0
CLASSIFICATION_TYPE = U
NORAD_CAT_ID   = 39679
ELEMENT_SET_NO = 999
REV_AT_EPOCH   = 65634
BSTAR          = .40815639E-3
MEAN_MOTION_DOT = .18624E-3
MEAN_MOTION_DDOT = 0

